{
"type": "FeatureCollection",
"name": "toronto_neighborhoods_centroids",
"crs": { "type": "name", "properties": { "name": "urn:ogc:def:crs:OGC:1.3:CRS84" } },
"features": [
{ "type": "Feature", "properties": { "area_code": "174", "area_name": "South Eglinton-Davisville" }, "geometry": { "type": "Point", "coordinates": [ -79.392623085135483, 43.701932561852416 ] } },
{ "type": "Feature", "properties": { "area_code": "173", "area_name": "North Toronto" }, "geometry": { "type": "Point", "coordinates": [ -79.395074512428195, 43.710253861554634 ] } },
{ "type": "Feature", "properties": { "area_code": "172", "area_name": "Dovercourt Village" }, "geometry": { "type": "Point", "coordinates": [ -79.428804521545231, 43.666228178600413 ] } },
{ "type": "Feature", "properties": { "area_code": "171", "area_name": "Junction-Wallace Emerson" }, "geometry": { "type": "Point", "coordinates": [ -79.445123454253533, 43.665304320869225 ] } },
{ "type": "Feature", "properties": { "area_code": "170", "area_name": "Yonge-Bay Corridor" }, "geometry": { "type": "Point", "coordinates": [ -79.383728192761168, 43.65295209620561 ] } },
{ "type": "Feature", "properties": { "area_code": "169", "area_name": "Bay-Cloverhill" }, "geometry": { "type": "Point", "coordinates": [ -79.388951282924239, 43.664898931679865 ] } },
{ "type": "Feature", "properties": { "area_code": "156", "area_name": "Bendale-Glen Andrew" }, "geometry": { "type": "Point", "coordinates": [ -79.259967758315625, 43.766433491411085 ] } },
{ "type": "Feature", "properties": { "area_code": "155", "area_name": "Downsview" }, "geometry": { "type": "Point", "coordinates": [ -79.474244782744307, 43.738703917820196 ] } },
{ "type": "Feature", "properties": { "area_code": "154", "area_name": "Oakdale-Beverley Heights" }, "geometry": { "type": "Point", "coordinates": [ -79.51074290315853, 43.726558138868718 ] } },
{ "type": "Feature", "properties": { "area_code": "153", "area_name": "Avondale" }, "geometry": { "type": "Point", "coordinates": [ -79.400841434148603, 43.760964526277874 ] } },
{ "type": "Feature", "properties": { "area_code": "152", "area_name": "East Willowdale" }, "geometry": { "type": "Point", "coordinates": [ -79.400310646140156, 43.773450494535915 ] } },
{ "type": "Feature", "properties": { "area_code": "151", "area_name": "Yonge-Doris" }, "geometry": { "type": "Point", "coordinates": [ -79.411909595887749, 43.771544712954011 ] } },
{ "type": "Feature", "properties": { "area_code": "150", "area_name": "Fenside-Parkwoods" }, "geometry": { "type": "Point", "coordinates": [ -79.330922794242952, 43.761574568148504 ] } },
{ "type": "Feature", "properties": { "area_code": "149", "area_name": "Parkwoods-O'Connor Hills" }, "geometry": { "type": "Point", "coordinates": [ -79.329576380858953, 43.74980131937383 ] } },
{ "type": "Feature", "properties": { "area_code": "148", "area_name": "East L'Amoreaux" }, "geometry": { "type": "Point", "coordinates": [ -79.305671716832649, 43.798966295773113 ] } },
{ "type": "Feature", "properties": { "area_code": "147", "area_name": "L'Amoreaux West" }, "geometry": { "type": "Point", "coordinates": [ -79.323063876763612, 43.792249330419999 ] } },
{ "type": "Feature", "properties": { "area_code": "146", "area_name": "Malvern East" }, "geometry": { "type": "Point", "coordinates": [ -79.21564640828052, 43.802026424820362 ] } },
{ "type": "Feature", "properties": { "area_code": "145", "area_name": "Malvern West" }, "geometry": { "type": "Point", "coordinates": [ -79.230751221349763, 43.805604516660345 ] } },
{ "type": "Feature", "properties": { "area_code": "144", "area_name": "Morningside Heights" }, "geometry": { "type": "Point", "coordinates": [ -79.197718814688187, 43.82790256038394 ] } },
{ "type": "Feature", "properties": { "area_code": "143", "area_name": "West Rouge" }, "geometry": { "type": "Point", "coordinates": [ -79.148024068026658, 43.798601956403608 ] } },
{ "type": "Feature", "properties": { "area_code": "142", "area_name": "Woburn North" }, "geometry": { "type": "Point", "coordinates": [ -79.236814298818643, 43.773178315519537 ] } },
{ "type": "Feature", "properties": { "area_code": "141", "area_name": "Golfdale-Cedarbrae-Woburn" }, "geometry": { "type": "Point", "coordinates": [ -79.219997560305529, 43.760024790076827 ] } },
{ "type": "Feature", "properties": { "area_code": "140", "area_name": "Guildwood" }, "geometry": { "type": "Point", "coordinates": [ -79.195042448443687, 43.748834078764951 ] } },
{ "type": "Feature", "properties": { "area_code": "139", "area_name": "Scarborough Village" }, "geometry": { "type": "Point", "coordinates": [ -79.216812802126739, 43.738651489601956 ] } },
{ "type": "Feature", "properties": { "area_code": "138", "area_name": "Eglinton East" }, "geometry": { "type": "Point", "coordinates": [ -79.245596968705726, 43.740922698661834 ] } },
{ "type": "Feature", "properties": { "area_code": "136", "area_name": "West Hill" }, "geometry": { "type": "Point", "coordinates": [ -79.17667585257972, 43.767490921408907 ] } },
{ "type": "Feature", "properties": { "area_code": "135", "area_name": "Morningside" }, "geometry": { "type": "Point", "coordinates": [ -79.207041167235047, 43.782400668223971 ] } },
{ "type": "Feature", "properties": { "area_code": "134", "area_name": "Highland Creek" }, "geometry": { "type": "Point", "coordinates": [ -79.177471789008834, 43.790775366004866 ] } },
{ "type": "Feature", "properties": { "area_code": "133", "area_name": "Centennial Scarborough" }, "geometry": { "type": "Point", "coordinates": [ -79.150843598378458, 43.782378175562627 ] } },
{ "type": "Feature", "properties": { "area_code": "130", "area_name": "Milliken" }, "geometry": { "type": "Point", "coordinates": [ -79.27500670012293, 43.820691511015902 ] } },
{ "type": "Feature", "properties": { "area_code": "129", "area_name": "Agincourt North" }, "geometry": { "type": "Point", "coordinates": [ -79.266712538181977, 43.805441474617339 ] } },
{ "type": "Feature", "properties": { "area_code": "128", "area_name": "Agincourt South-Malvern West" }, "geometry": { "type": "Point", "coordinates": [ -79.265611236189812, 43.788658222143354 ] } },
{ "type": "Feature", "properties": { "area_code": "126", "area_name": "Dorset Park" }, "geometry": { "type": "Point", "coordinates": [ -79.278908948421133, 43.759277738791674 ] } },
{ "type": "Feature", "properties": { "area_code": "125", "area_name": "Ionview" }, "geometry": { "type": "Point", "coordinates": [ -79.272470347571087, 43.735365272520063 ] } },
{ "type": "Feature", "properties": { "area_code": "124", "area_name": "Kennedy Park" }, "geometry": { "type": "Point", "coordinates": [ -79.260381266731954, 43.725556661472893 ] } },
{ "type": "Feature", "properties": { "area_code": "123", "area_name": "Cliffcrest" }, "geometry": { "type": "Point", "coordinates": [ -79.235530275257162, 43.7211236442893 ] } },
{ "type": "Feature", "properties": { "area_code": "122", "area_name": "Birchcliffe-Cliffside" }, "geometry": { "type": "Point", "coordinates": [ -79.265087571029895, 43.694686298317841 ] } },
{ "type": "Feature", "properties": { "area_code": "168", "area_name": "Downtown Yonge East" }, "geometry": { "type": "Point", "coordinates": [ -79.37712781803171, 43.655034892436447 ] } },
{ "type": "Feature", "properties": { "area_code": "167", "area_name": "Church-Wellesley" }, "geometry": { "type": "Point", "coordinates": [ -79.38176320120823, 43.666354153728989 ] } },
{ "type": "Feature", "properties": { "area_code": "166", "area_name": "St Lawrence-East Bayfront-The Islands" }, "geometry": { "type": "Point", "coordinates": [ -79.374348801328907, 43.632244050733526 ] } },
{ "type": "Feature", "properties": { "area_code": "165", "area_name": "Harbourfront-CityPlace" }, "geometry": { "type": "Point", "coordinates": [ -79.390378534569194, 43.640121654983311 ] } },
{ "type": "Feature", "properties": { "area_code": "164", "area_name": "Wellington Place" }, "geometry": { "type": "Point", "coordinates": [ -79.394627547102701, 43.645851296337121 ] } },
{ "type": "Feature", "properties": { "area_code": "163", "area_name": "Fort York-Liberty Village" }, "geometry": { "type": "Point", "coordinates": [ -79.413001562888169, 43.634273189595476 ] } },
{ "type": "Feature", "properties": { "area_code": "162", "area_name": "West Queen West" }, "geometry": { "type": "Point", "coordinates": [ -79.410911304895734, 43.6429279515636 ] } },
{ "type": "Feature", "properties": { "area_code": "161", "area_name": "Humber Bay Shores" }, "geometry": { "type": "Point", "coordinates": [ -79.480638007398653, 43.622391499050245 ] } },
{ "type": "Feature", "properties": { "area_code": "160", "area_name": "Mimico-Queensway" }, "geometry": { "type": "Point", "coordinates": [ -79.505750481419028, 43.614061829463857 ] } },
{ "type": "Feature", "properties": { "area_code": "159", "area_name": "Etobicoke City Centre" }, "geometry": { "type": "Point", "coordinates": [ -79.540777344446894, 43.625711054287635 ] } },
{ "type": "Feature", "properties": { "area_code": "158", "area_name": "Islington" }, "geometry": { "type": "Point", "coordinates": [ -79.54752761625565, 43.646337049773173 ] } },
{ "type": "Feature", "properties": { "area_code": "157", "area_name": "Bendale South" }, "geometry": { "type": "Point", "coordinates": [ -79.252443874079376, 43.748652904595609 ] } },
{ "type": "Feature", "properties": { "area_code": "109", "area_name": "Caledonia-Fairbank" }, "geometry": { "type": "Point", "coordinates": [ -79.455212676667301, 43.688568741940394 ] } },
{ "type": "Feature", "properties": { "area_code": "108", "area_name": "Briar Hill-Belgravia" }, "geometry": { "type": "Point", "coordinates": [ -79.452869398284435, 43.699024486943571 ] } },
{ "type": "Feature", "properties": { "area_code": "107", "area_name": "Oakwood Village" }, "geometry": { "type": "Point", "coordinates": [ -79.439785906114054, 43.688566465719568 ] } },
{ "type": "Feature", "properties": { "area_code": "106", "area_name": "Humewood-Cedarvale" }, "geometry": { "type": "Point", "coordinates": [ -79.427683843445848, 43.691370780456118 ] } },
{ "type": "Feature", "properties": { "area_code": "105", "area_name": "Lawrence Park North" }, "geometry": { "type": "Point", "coordinates": [ -79.40397808123528, 43.730060348349035 ] } },
{ "type": "Feature", "properties": { "area_code": "103", "area_name": "Lawrence Park South" }, "geometry": { "type": "Point", "coordinates": [ -79.406037869856377, 43.717212639313352 ] } },
{ "type": "Feature", "properties": { "area_code": "102", "area_name": "Forest Hill North" }, "geometry": { "type": "Point", "coordinates": [ -79.428161836196807, 43.704208987267265 ] } },
{ "type": "Feature", "properties": { "area_code": "101", "area_name": "Forest Hill South" }, "geometry": { "type": "Point", "coordinates": [ -79.414318151576651, 43.694526440865715 ] } },
{ "type": "Feature", "properties": { "area_code": "100", "area_name": "Yonge-Eglinton" }, "geometry": { "type": "Point", "coordinates": [ -79.403590674142407, 43.704690500581897 ] } },
{ "type": "Feature", "properties": { "area_code": "099", "area_name": "Mount Pleasant East" }, "geometry": { "type": "Point", "coordinates": [ -79.384935414428284, 43.704829237418629 ] } },
{ "type": "Feature", "properties": { "area_code": "098", "area_name": "Rosedale-Moore Park" }, "geometry": { "type": "Point", "coordinates": [ -79.379649669793068, 43.682807269157962 ] } },
{ "type": "Feature", "properties": { "area_code": "097", "area_name": "Yonge-St.Clair" }, "geometry": { "type": "Point", "coordinates": [ -79.397871434310588, 43.687860541603612 ] } },
{ "type": "Feature", "properties": { "area_code": "096", "area_name": "Casa Loma" }, "geometry": { "type": "Point", "coordinates": [ -79.408006506989551, 43.681852647760671 ] } },
{ "type": "Feature", "properties": { "area_code": "095", "area_name": "Annex" }, "geometry": { "type": "Point", "coordinates": [ -79.403999765487882, 43.671585548138324 ] } },
{ "type": "Feature", "properties": { "area_code": "094", "area_name": "Wychwood" }, "geometry": { "type": "Point", "coordinates": [ -79.425514818793289, 43.676919521223049 ] } },
{ "type": "Feature", "properties": { "area_code": "092", "area_name": "Corso Italia-Davenport" }, "geometry": { "type": "Point", "coordinates": [ -79.44749621595021, 43.677663126344207 ] } },
{ "type": "Feature", "properties": { "area_code": "091", "area_name": "Weston-Pelham Park" }, "geometry": { "type": "Point", "coordinates": [ -79.460251127684728, 43.673948055489703 ] } },
{ "type": "Feature", "properties": { "area_code": "090", "area_name": "Junction Area" }, "geometry": { "type": "Point", "coordinates": [ -79.471440978862049, 43.667888820964976 ] } },
{ "type": "Feature", "properties": { "area_code": "121", "area_name": "Oakridge" }, "geometry": { "type": "Point", "coordinates": [ -79.279709249142968, 43.697408087697006 ] } },
{ "type": "Feature", "properties": { "area_code": "120", "area_name": "Clairlea-Birchmount" }, "geometry": { "type": "Point", "coordinates": [ -79.28138249108332, 43.713593539870985 ] } },
{ "type": "Feature", "properties": { "area_code": "119", "area_name": "Wexford/Maryvale" }, "geometry": { "type": "Point", "coordinates": [ -79.298638983660297, 43.748578252426775 ] } },
{ "type": "Feature", "properties": { "area_code": "118", "area_name": "Tam O'Shanter-Sullivan" }, "geometry": { "type": "Point", "coordinates": [ -79.302916100900973, 43.780131841615301 ] } },
{ "type": "Feature", "properties": { "area_code": "116", "area_name": "Steeles" }, "geometry": { "type": "Point", "coordinates": [ -79.321206806559701, 43.812959449858312 ] } },
{ "type": "Feature", "properties": { "area_code": "115", "area_name": "Mount Dennis" }, "geometry": { "type": "Point", "coordinates": [ -79.499989606718728, 43.688144271827582 ] } },
{ "type": "Feature", "properties": { "area_code": "114", "area_name": "Lambton Baby Point" }, "geometry": { "type": "Point", "coordinates": [ -79.49604462838451, 43.65741947200268 ] } },
{ "type": "Feature", "properties": { "area_code": "113", "area_name": "Weston" }, "geometry": { "type": "Point", "coordinates": [ -79.515723138419915, 43.702716362145296 ] } },
{ "type": "Feature", "properties": { "area_code": "112", "area_name": "Beechborough-Greenbrook" }, "geometry": { "type": "Point", "coordinates": [ -79.479472030896062, 43.693216448874203 ] } },
{ "type": "Feature", "properties": { "area_code": "111", "area_name": "Rockcliffe-Smythe" }, "geometry": { "type": "Point", "coordinates": [ -79.494418790493725, 43.67479116931699 ] } },
{ "type": "Feature", "properties": { "area_code": "110", "area_name": "Keelesdale-Eglinton West" }, "geometry": { "type": "Point", "coordinates": [ -79.471437927302318, 43.685727714677121 ] } },
{ "type": "Feature", "properties": { "area_code": "080", "area_name": "Palmerston-Little Italy" }, "geometry": { "type": "Point", "coordinates": [ -79.418408597261049, 43.659157237841647 ] } },
{ "type": "Feature", "properties": { "area_code": "079", "area_name": "University" }, "geometry": { "type": "Point", "coordinates": [ -79.401179724278805, 43.662506451322791 ] } },
{ "type": "Feature", "properties": { "area_code": "078", "area_name": "Kensington-Chinatown" }, "geometry": { "type": "Point", "coordinates": [ -79.397239739779835, 43.653554404709922 ] } },
{ "type": "Feature", "properties": { "area_code": "074", "area_name": "North St.James Town" }, "geometry": { "type": "Point", "coordinates": [ -79.375246863477187, 43.669621782785079 ] } },
{ "type": "Feature", "properties": { "area_code": "073", "area_name": "Moss Park" }, "geometry": { "type": "Point", "coordinates": [ -79.367454393539447, 43.656528495260709 ] } },
{ "type": "Feature", "properties": { "area_code": "072", "area_name": "Regent Park" }, "geometry": { "type": "Point", "coordinates": [ -79.360508787418638, 43.659992271737003 ] } },
{ "type": "Feature", "properties": { "area_code": "071", "area_name": "Cabbagetown-South St.James Town" }, "geometry": { "type": "Point", "coordinates": [ -79.366106510086155, 43.667648020954154 ] } },
{ "type": "Feature", "properties": { "area_code": "070", "area_name": "South Riverdale" }, "geometry": { "type": "Point", "coordinates": [ -79.335617302988865, 43.649207638814801 ] } },
{ "type": "Feature", "properties": { "area_code": "069", "area_name": "Blake-Jones" }, "geometry": { "type": "Point", "coordinates": [ -79.337394100621665, 43.67617312597163 ] } },
{ "type": "Feature", "properties": { "area_code": "068", "area_name": "North Riverdale" }, "geometry": { "type": "Point", "coordinates": [ -79.351260516744532, 43.671995515415666 ] } },
{ "type": "Feature", "properties": { "area_code": "067", "area_name": "Playter Estates-Danforth" }, "geometry": { "type": "Point", "coordinates": [ -79.354887052627689, 43.679700504101376 ] } },
{ "type": "Feature", "properties": { "area_code": "066", "area_name": "Danforth" }, "geometry": { "type": "Point", "coordinates": [ -79.329818494227524, 43.684025327249337 ] } },
{ "type": "Feature", "properties": { "area_code": "065", "area_name": "Greenwood-Coxwell" }, "geometry": { "type": "Point", "coordinates": [ -79.324318440939351, 43.672613599430889 ] } },
{ "type": "Feature", "properties": { "area_code": "064", "area_name": "Woodbine Corridor" }, "geometry": { "type": "Point", "coordinates": [ -79.315407580890579, 43.676773799553175 ] } },
{ "type": "Feature", "properties": { "area_code": "063", "area_name": "The Beaches" }, "geometry": { "type": "Point", "coordinates": [ -79.299599039795524, 43.671050636712039 ] } },
{ "type": "Feature", "properties": { "area_code": "062", "area_name": "East End-Danforth" }, "geometry": { "type": "Point", "coordinates": [ -79.299358366774811, 43.68417430387872 ] } },
{ "type": "Feature", "properties": { "area_code": "061", "area_name": "Taylor-Massey" }, "geometry": { "type": "Point", "coordinates": [ -79.295901201334274, 43.694998546806332 ] } },
{ "type": "Feature", "properties": { "area_code": "060", "area_name": "Woodbine-Lumsden" }, "geometry": { "type": "Point", "coordinates": [ -79.311163866463843, 43.694107333562393 ] } },
{ "type": "Feature", "properties": { "area_code": "059", "area_name": "Danforth East York" }, "geometry": { "type": "Point", "coordinates": [ -79.33140259277711, 43.689468053875807 ] } },
{ "type": "Feature", "properties": { "area_code": "058", "area_name": "Old East York" }, "geometry": { "type": "Point", "coordinates": [ -79.335487776189254, 43.696781286194238 ] } },
{ "type": "Feature", "properties": { "area_code": "089", "area_name": "Runnymede-Bloor West Village" }, "geometry": { "type": "Point", "coordinates": [ -79.485709816263054, 43.659269144790294 ] } },
{ "type": "Feature", "properties": { "area_code": "088", "area_name": "High Park North" }, "geometry": { "type": "Point", "coordinates": [ -79.466301940991826, 43.657564934516152 ] } },
{ "type": "Feature", "properties": { "area_code": "087", "area_name": "High Park-Swansea" }, "geometry": { "type": "Point", "coordinates": [ -79.467870748254484, 43.645064717879826 ] } },
{ "type": "Feature", "properties": { "area_code": "086", "area_name": "Roncesvalles" }, "geometry": { "type": "Point", "coordinates": [ -79.442993151631782, 43.646123627885174 ] } },
{ "type": "Feature", "properties": { "area_code": "085", "area_name": "South Parkdale" }, "geometry": { "type": "Point", "coordinates": [ -79.439338000230592, 43.636698914627715 ] } },
{ "type": "Feature", "properties": { "area_code": "084", "area_name": "Little Portugal" }, "geometry": { "type": "Point", "coordinates": [ -79.430323005863315, 43.64753620041558 ] } },
{ "type": "Feature", "properties": { "area_code": "083", "area_name": "Dufferin Grove" }, "geometry": { "type": "Point", "coordinates": [ -79.437340584583694, 43.655428398317298 ] } },
{ "type": "Feature", "properties": { "area_code": "081", "area_name": "Trinity-Bellwoods" }, "geometry": { "type": "Point", "coordinates": [ -79.415342074422469, 43.650176545644797 ] } },
{ "type": "Feature", "properties": { "area_code": "047", "area_name": "Don Valley Village" }, "geometry": { "type": "Point", "coordinates": [ -79.353644127140015, 43.783294708757488 ] } },
{ "type": "Feature", "properties": { "area_code": "046", "area_name": "Pleasant View" }, "geometry": { "type": "Point", "coordinates": [ -79.334949343372159, 43.786983913168179 ] } },
{ "type": "Feature", "properties": { "area_code": "044", "area_name": "Flemingdon Park" }, "geometry": { "type": "Point", "coordinates": [ -79.332645998165617, 43.715930110343734 ] } },
{ "type": "Feature", "properties": { "area_code": "043", "area_name": "Victoria Village" }, "geometry": { "type": "Point", "coordinates": [ -79.314874633666435, 43.728491039488858 ] } },
{ "type": "Feature", "properties": { "area_code": "042", "area_name": "Banbury-Don Mills" }, "geometry": { "type": "Point", "coordinates": [ -79.349721616308116, 43.737661266954838 ] } },
{ "type": "Feature", "properties": { "area_code": "041", "area_name": "Bridle Path-Sunnybrook-York Mills" }, "geometry": { "type": "Point", "coordinates": [ -79.378903302751013, 43.731014497291518 ] } },
{ "type": "Feature", "properties": { "area_code": "040", "area_name": "St.Andrew-Windfields" }, "geometry": { "type": "Point", "coordinates": [ -79.3791436586788, 43.75626447457082 ] } },
{ "type": "Feature", "properties": { "area_code": "039", "area_name": "Bedford Park-Nortown" }, "geometry": { "type": "Point", "coordinates": [ -79.42022550618465, 43.731490510112245 ] } },
{ "type": "Feature", "properties": { "area_code": "038", "area_name": "Lansing-Westgate" }, "geometry": { "type": "Point", "coordinates": [ -79.42474698464693, 43.754273063288451 ] } },
{ "type": "Feature", "properties": { "area_code": "037", "area_name": "Willowdale West" }, "geometry": { "type": "Point", "coordinates": [ -79.427557298598487, 43.771210728554131 ] } },
{ "type": "Feature", "properties": { "area_code": "036", "area_name": "Newtonbrook West" }, "geometry": { "type": "Point", "coordinates": [ -79.431421132079379, 43.78583094017862 ] } },
{ "type": "Feature", "properties": { "area_code": "035", "area_name": "Westminster-Branson" }, "geometry": { "type": "Point", "coordinates": [ -79.452419120930784, 43.778815221850806 ] } },
{ "type": "Feature", "properties": { "area_code": "034", "area_name": "Bathurst Manor" }, "geometry": { "type": "Point", "coordinates": [ -79.456057364076614, 43.764816190070938 ] } },
{ "type": "Feature", "properties": { "area_code": "033", "area_name": "Clanton Park" }, "geometry": { "type": "Point", "coordinates": [ -79.446371257415777, 43.741977050697741 ] } },
{ "type": "Feature", "properties": { "area_code": "032", "area_name": "Englemount-Lawrence" }, "geometry": { "type": "Point", "coordinates": [ -79.437409097228937, 43.720346822916241 ] } },
{ "type": "Feature", "properties": { "area_code": "031", "area_name": "Yorkdale-Glen Park" }, "geometry": { "type": "Point", "coordinates": [ -79.457108257084357, 43.71467348233481 ] } },
{ "type": "Feature", "properties": { "area_code": "030", "area_name": "Brookhaven-Amesbury" }, "geometry": { "type": "Point", "coordinates": [ -79.485588299349985, 43.70132643461573 ] } },
{ "type": "Feature", "properties": { "area_code": "029", "area_name": "Maple Leaf" }, "geometry": { "type": "Point", "coordinates": [ -79.480757851394387, 43.715574540692756 ] } },
{ "type": "Feature", "properties": { "area_code": "028", "area_name": "Rustic" }, "geometry": { "type": "Point", "coordinates": [ -79.498091529545249, 43.711609757197785 ] } },
{ "type": "Feature", "properties": { "area_code": "027", "area_name": "York University Heights" }, "geometry": { "type": "Point", "coordinates": [ -79.488882371495606, 43.765740502363869 ] } },
{ "type": "Feature", "properties": { "area_code": "025", "area_name": "Glenfield-Jane Heights" }, "geometry": { "type": "Point", "coordinates": [ -79.513463671283432, 43.745635877643934 ] } },
{ "type": "Feature", "properties": { "area_code": "057", "area_name": "Broadview North" }, "geometry": { "type": "Point", "coordinates": [ -79.355629197392332, 43.68882594496754 ] } },
{ "type": "Feature", "properties": { "area_code": "056", "area_name": "Leaside-Bennington" }, "geometry": { "type": "Point", "coordinates": [ -79.366071865137926, 43.703800610451118 ] } },
{ "type": "Feature", "properties": { "area_code": "055", "area_name": "Thorncliffe Park" }, "geometry": { "type": "Point", "coordinates": [ -79.349983961159381, 43.707750031219128 ] } },
{ "type": "Feature", "properties": { "area_code": "054", "area_name": "O'Connor-Parkview" }, "geometry": { "type": "Point", "coordinates": [ -79.312227825683252, 43.70680088456777 ] } },
{ "type": "Feature", "properties": { "area_code": "053", "area_name": "Henry Farm" }, "geometry": { "type": "Point", "coordinates": [ -79.341237471486025, 43.771143451747257 ] } },
{ "type": "Feature", "properties": { "area_code": "052", "area_name": "Bayview Village" }, "geometry": { "type": "Point", "coordinates": [ -79.377117198213909, 43.776362013238263 ] } },
{ "type": "Feature", "properties": { "area_code": "050", "area_name": "Newtonbrook East" }, "geometry": { "type": "Point", "coordinates": [ -79.405937256705457, 43.791536827263002 ] } },
{ "type": "Feature", "properties": { "area_code": "049", "area_name": "Bayview Woods-Steeles" }, "geometry": { "type": "Point", "coordinates": [ -79.382117729386906, 43.79680291949682 ] } },
{ "type": "Feature", "properties": { "area_code": "048", "area_name": "Hillcrest Village" }, "geometry": { "type": "Point", "coordinates": [ -79.354803163383451, 43.802988882290286 ] } },
{ "type": "Feature", "properties": { "area_code": "020", "area_name": "Alderwood" }, "geometry": { "type": "Point", "coordinates": [ -79.541610397904208, 43.604937991361716 ] } },
{ "type": "Feature", "properties": { "area_code": "019", "area_name": "Long Branch" }, "geometry": { "type": "Point", "coordinates": [ -79.533344262643894, 43.592362378182003 ] } },
{ "type": "Feature", "properties": { "area_code": "018", "area_name": "New Toronto" }, "geometry": { "type": "Point", "coordinates": [ -79.510360903298633, 43.600582475922387 ] } },
{ "type": "Feature", "properties": { "area_code": "016", "area_name": "Stonegate-Queensway" }, "geometry": { "type": "Point", "coordinates": [ -79.501128596214699, 43.63551953683664 ] } },
{ "type": "Feature", "properties": { "area_code": "015", "area_name": "Kingsway South" }, "geometry": { "type": "Point", "coordinates": [ -79.5105765699318, 43.653520702740444 ] } },
{ "type": "Feature", "properties": { "area_code": "013", "area_name": "Etobicoke West Mall" }, "geometry": { "type": "Point", "coordinates": [ -79.568938869902198, 43.645063998487721 ] } },
{ "type": "Feature", "properties": { "area_code": "012", "area_name": "Markland Wood" }, "geometry": { "type": "Point", "coordinates": [ -79.573431753292965, 43.633542349930536 ] } },
{ "type": "Feature", "properties": { "area_code": "011", "area_name": "Eringate-Centennial-West Deane" }, "geometry": { "type": "Point", "coordinates": [ -79.580442468554438, 43.658019171091787 ] } },
{ "type": "Feature", "properties": { "area_code": "010", "area_name": "Princess-Rosethorn" }, "geometry": { "type": "Point", "coordinates": [ -79.544560577892355, 43.666052204231796 ] } },
{ "type": "Feature", "properties": { "area_code": "009", "area_name": "Edenbridge-Humber Valley" }, "geometry": { "type": "Point", "coordinates": [ -79.522457638443683, 43.67088815496394 ] } },
{ "type": "Feature", "properties": { "area_code": "008", "area_name": "Humber Heights-Westmount" }, "geometry": { "type": "Point", "coordinates": [ -79.522417061523669, 43.692233843845798 ] } },
{ "type": "Feature", "properties": { "area_code": "007", "area_name": "Willowridge-Martingrove-Richview" }, "geometry": { "type": "Point", "coordinates": [ -79.554220012321437, 43.68364506267303 ] } },
{ "type": "Feature", "properties": { "area_code": "006", "area_name": "Kingsview Village-The Westway" }, "geometry": { "type": "Point", "coordinates": [ -79.547862839790739, 43.698993807062791 ] } },
{ "type": "Feature", "properties": { "area_code": "005", "area_name": "Elms-Old Rexdale" }, "geometry": { "type": "Point", "coordinates": [ -79.548982587613395, 43.721520695006177 ] } },
{ "type": "Feature", "properties": { "area_code": "004", "area_name": "Rexdale-Kipling" }, "geometry": { "type": "Point", "coordinates": [ -79.566229375255617, 43.723726997488377 ] } },
{ "type": "Feature", "properties": { "area_code": "003", "area_name": "Thistletown-Beaumond Heights" }, "geometry": { "type": "Point", "coordinates": [ -79.563491690854889, 43.737988287444544 ] } },
{ "type": "Feature", "properties": { "area_code": "002", "area_name": "Mount Olive-Silverstone-Jamestown" }, "geometry": { "type": "Point", "coordinates": [ -79.587260060063542, 43.746870738003317 ] } },
{ "type": "Feature", "properties": { "area_code": "001", "area_name": "West Humber-Clairville" }, "geometry": { "type": "Point", "coordinates": [ -79.596367079707306, 43.716197463462017 ] } },
{ "type": "Feature", "properties": { "area_code": "024", "area_name": "Black Creek" }, "geometry": { "type": "Point", "coordinates": [ -79.52197959269995, 43.764891024771977 ] } },
{ "type": "Feature", "properties": { "area_code": "023", "area_name": "Pelmo Park-Humberlea" }, "geometry": { "type": "Point", "coordinates": [ -79.528284146752483, 43.717516359840864 ] } },
{ "type": "Feature", "properties": { "area_code": "022", "area_name": "Humbermede" }, "geometry": { "type": "Point", "coordinates": [ -79.542367299077313, 43.743430266287554 ] } },
{ "type": "Feature", "properties": { "area_code": "021", "area_name": "Humber Summit" }, "geometry": { "type": "Point", "coordinates": [ -79.556173280826258, 43.758920269131764 ] } }
]
}
